[{"OBJECT_NAME":"OPS 9751","OBJECT_ID":"1977-038A","EPOCH":"2026-04-05T13:40:01.767360","MEAN_MOTION":1.00264074,"ECCENTRICITY":0.13064614,"INCLINATION":7.4691,"RA_OF_ASC_NODE":332.0979,"ARG_OF_PERICENTER":130.7965,"MEAN_ANOMALY":28.1863,"EPHEMERIS_TYPE":0,"CLASSIFICATION_TYPE":"U","NORAD_CAT_ID":10016,"ELEMENT_SET_NO":999,"REV_AT_EPOCH":2572,"BSTAR":0,"MEAN_MOTION_DOT":-3.21e-6,"MEAN_MOTION_DDOT":0},{"OBJECT_NAME":"INTELSAT 4A-F4","OBJECT_ID":"1977-041A","EPOCH":"2026-04-05T12:31:11.273664","MEAN_MOTION":0.9944465,"ECCENTRICITY":0.00122758,"INCLINATION":9.0413,"RA_OF_ASC_NODE":311.6117,"ARG_OF_PERICENTER":278.5699,"MEAN_ANOMALY":104.2215,"EPHEMERIS_TYPE":0,"CLASSIFICATION_TYPE":"U","NORAD_CAT_ID":10024,"ELEMENT_SET_NO":999,"REV_AT_EPOCH":4626,"BSTAR":0,"MEAN_MOTION_DOT":-2.67e-6,"MEAN_MOTION_DDOT":0},{"OBJECT_NAME":"ATLAS CENTAUR R/B","OBJECT_ID":"1977-041B","EPOCH":"2026-04-01T04:56:05.250912","MEAN_MOTION":2.2288636,"ECCENTRICITY":0.71811765,"INCLINATION":21.5737,"RA_OF_ASC_NODE":283.397,"ARG_OF_PERICENTER":84.8686,"MEAN_ANOMALY":9.2425,"EPHEMERIS_TYPE":0,"CLASSIFICATION_TYPE":"U","NORAD_CAT_ID":10025,"ELEMENT_SET_NO":999,"REV_AT_EPOCH":39624,"BSTAR":0.0010919934,"MEAN_MOTION_DOT":-1.73e-6,"MEAN_MOTION_DDOT":0},{"OBJECT_NAME":"GOES 2","OBJECT_ID":"1977-048A","EPOCH":"2026-04-05T05:58:17.175360","MEAN_MOTION":0.99399916,"ECCENTRICITY":0.001372,"INCLINATION":6.5939,"RA_OF_ASC_NODE":293.9791,"ARG_OF_PERICENTER":51.6239,"MEAN_ANOMALY":312.6531,"EPHEMERIS_TYPE":0,"CLASSIFICATION_TYPE":"U","NORAD_CAT_ID":10061,"ELEMENT_SET_NO":999,"REV_AT_EPOCH":4555,"BSTAR":0,"MEAN_MOTION_DOT":-5.3e-7,"MEAN_MOTION_DDOT":0},{"OBJECT_NAME":"RADUGA 3","OBJECT_ID":"1977-071A","EPOCH":"2026-04-05T12:57:53.712864","MEAN_MOTION":1.00327935,"ECCENTRICITY":0.00083619,"INCLINATION":4.3036,"RA_OF_ASC_NODE":274.4981,"ARG_OF_PERICENTER":304.1043,"MEAN_ANOMALY":215.9285,"EPHEMERIS_TYPE":0,"CLASSIFICATION_TYPE":"U","NORAD_CAT_ID":10159,"ELEMENT_SET_NO":999,"REV_AT_EPOCH":17631,"BSTAR":0,"MEAN_MOTION_DOT":1.24e-6,"MEAN_MOTION_DDOT":0},{"OBJECT_NAME":"SL-6 R/B(2)","OBJECT_ID":"1977-068D","EPOCH":"2026-04-05T03:22:25.223808","MEAN_MOTION":1.99737591,"ECCENTRICITY":0.7374626,"INCLINATION":62.1373,"RA_OF_ASC_NODE":326.22,"ARG_OF_PERICENTER":47.2638,"MEAN_ANOMALY":354.7157,"EPHEMERIS_TYPE":0,"CLASSIFICATION_TYPE":"U","NORAD_CAT_ID":10167,"ELEMENT_SET_NO":999,"REV_AT_EPOCH":27935,"BSTAR":-0.0014367,"MEAN_MOTION_DOT":-3.44e-6,"MEAN_MOTION_DDOT":0},{"OBJECT_NAME":"SIRIO","OBJECT_ID":"1977-080A","EPOCH":"2026-04-05T14:21:20.984256","MEAN_MOTION":1.00270867,"ECCENTRICITY":0.00058836,"INCLINATION":7.3858,"RA_OF_ASC_NODE":299.7088,"ARG_OF_PERICENTER":149.2401,"MEAN_ANOMALY":35.8996,"EPHEMERIS_TYPE":0,"CLASSIFICATION_TYPE":"U","NORAD_CAT_ID":10294,"ELEMENT_SET_NO":999,"REV_AT_EPOCH":11719,"BSTAR":0,"MEAN_MOTION_DOT":-1.03e-6,"MEAN_MOTION_DDOT":0},{"OBJECT_NAME":"EKRAN 2","OBJECT_ID":"1977-092A","EPOCH":"2026-04-05T13:12:59.763744","MEAN_MOTION":1.00265303,"ECCENTRICITY":0.00396238,"INCLINATION":4.423,"RA_OF_ASC_NODE":275.6557,"ARG_OF_PERICENTER":19.4444,"MEAN_ANOMALY":196.1288,"EPHEMERIS_TYPE":0,"CLASSIFICATION_TYPE":"U","NORAD_CAT_ID":10365,"ELEMENT_SET_NO":999,"REV_AT_EPOCH":13412,"BSTAR":0,"MEAN_MOTION_DOT":-2.99e-6,"MEAN_MOTION_DDOT":0},{"OBJECT_NAME":"MOLNIYA 3-8","OBJECT_ID":"1977-105A","EPOCH":"2026-04-04T20:59:17.733984","MEAN_MOTION":2.00555628,"ECCENTRICITY":0.6723467,"INCLINATION":63.7418,"RA_OF_ASC_NODE":184.1063,"ARG_OF_PERICENTER":277.354,"MEAN_ANOMALY":16.5304,"EPHEMERIS_TYPE":0,"CLASSIFICATION_TYPE":"U","NORAD_CAT_ID":10455,"ELEMENT_SET_NO":999,"REV_AT_EPOCH":35497,"BSTAR":0,"MEAN_MOTION_DOT":1.228e-5,"MEAN_MOTION_DDOT":0},{"OBJECT_NAME":"SL-6 R/B(2)","OBJECT_ID":"1977-105E","EPOCH":"2026-03-20T10:24:54.334080","MEAN_MOTION":1.97303906,"ECCENTRICITY":0.6952684,"INCLINATION":63.8926,"RA_OF_ASC_NODE":224.2357,"ARG_OF_PERICENTER":280.1958,"MEAN_ANOMALY":13.8705,"EPHEMERIS_TYPE":0,"CLASSIFICATION_TYPE":"U","NORAD_CAT_ID":10485,"ELEMENT_SET_NO":999,"REV_AT_EPOCH":34840,"BSTAR":0,"MEAN_MOTION_DOT":7.49e-6,"MEAN_MOTION_DDOT":0},{"OBJECT_NAME":"METEOSAT-1","OBJECT_ID":"1977-108A","EPOCH":"2026-04-05T05:20:38.836608","MEAN_MOTION":1.00302141,"ECCENTRICITY":0.0010919,"INCLINATION":5.2598,"RA_OF_ASC_NODE":281.992,"ARG_OF_PERICENTER":90.2075,"MEAN_ANOMALY":276.7967,"EPHEMERIS_TYPE":0,"CLASSIFICATION_TYPE":"U","NORAD_CAT_ID":10489,"ELEMENT_SET_NO":999,"REV_AT_EPOCH":13648,"BSTAR":0,"MEAN_MOTION_DOT":9.9e-7,"MEAN_MOTION_DDOT":0},{"OBJECT_NAME":"INTELSAT 4A-F3","OBJECT_ID":"1978-002A","EPOCH":"2026-04-04T21:17:10.455648","MEAN_MOTION":0.9991822,"ECCENTRICITY":0.0004097,"INCLINATION":9.1318,"RA_OF_ASC_NODE":313.152,"ARG_OF_PERICENTER":316.1447,"MEAN_ANOMALY":231.1828,"EPHEMERIS_TYPE":0,"CLASSIFICATION_TYPE":"U","NORAD_CAT_ID":10557,"ELEMENT_SET_NO":999,"REV_AT_EPOCH":4801,"BSTAR":0,"MEAN_MOTION_DOT":-1.7e-6,"MEAN_MOTION_DDOT":0},{"OBJECT_NAME":"IUE","OBJECT_ID":"1978-012A","EPOCH":"2026-04-05T05:06:59.851008","MEAN_MOTION":1.00068036,"ECCENTRICITY":0.146017,"INCLINATION":36.9148,"RA_OF_ASC_NODE":289.5288,"ARG_OF_PERICENTER":266.1779,"MEAN_ANOMALY":285.1908,"EPHEMERIS_TYPE":0,"CLASSIFICATION_TYPE":"U","NORAD_CAT_ID":10637,"ELEMENT_SET_NO":999,"REV_AT_EPOCH":12834,"BSTAR":0,"MEAN_MOTION_DOT":4.2e-7,"MEAN_MOTION_DDOT":0},{"OBJECT_NAME":"ATLAS CENTAUR R/B","OBJECT_ID":"1978-002B","EPOCH":"2026-04-03T11:46:55.503552","MEAN_MOTION":2.2186289,"ECCENTRICITY":0.71660167,"INCLINATION":21.8917,"RA_OF_ASC_NODE":5.1953,"ARG_OF_PERICENTER":129.2118,"MEAN_ANOMALY":3.759,"EPHEMERIS_TYPE":0,"CLASSIFICATION_TYPE":"U","NORAD_CAT_ID":10722,"ELEMENT_SET_NO":999,"REV_AT_EPOCH":28295,"BSTAR":0.0014096497,"MEAN_MOTION_DOT":-5.2e-7,"MEAN_MOTION_DDOT":0},{"OBJECT_NAME":"INTELSAT 4A-F6","OBJECT_ID":"1978-035A","EPOCH":"2026-04-05T11:42:15.571872","MEAN_MOTION":1.00282505,"ECCENTRICITY":0.00080666,"INCLINATION":8.9118,"RA_OF_ASC_NODE":312.1676,"ARG_OF_PERICENTER":320.5337,"MEAN_ANOMALY":237.8788,"EPHEMERIS_TYPE":0,"CLASSIFICATION_TYPE":"U","NORAD_CAT_ID":10778,"ELEMENT_SET_NO":999,"REV_AT_EPOCH":12143,"BSTAR":0,"MEAN_MOTION_DOT":-2.82e-6,"MEAN_MOTION_DDOT":0},{"OBJECT_NAME":"ATLAS CENTAUR R/B","OBJECT_ID":"1978-035B","EPOCH":"2026-04-04T02:35:43.090368","MEAN_MOTION":2.22750698,"ECCENTRICITY":0.71854603,"INCLINATION":21.9737,"RA_OF_ASC_NODE":32.1808,"ARG_OF_PERICENTER":199.8028,"MEAN_ANOMALY":103.3983,"EPHEMERIS_TYPE":0,"CLASSIFICATION_TYPE":"U","NORAD_CAT_ID":10779,"ELEMENT_SET_NO":999,"REV_AT_EPOCH":39024,"BSTAR":0.00066485127,"MEAN_MOTION_DOT":-1.25e-6,"MEAN_MOTION_DDOT":0},{"OBJECT_NAME":"OPS 8790","OBJECT_ID":"1978-038A","EPOCH":"2026-04-05T12:57:16.273152","MEAN_MOTION":1.00493129,"ECCENTRICITY":0.00147328,"INCLINATION":3.7069,"RA_OF_ASC_NODE":323.4722,"ARG_OF_PERICENTER":303.0468,"MEAN_ANOMALY":165.3908,"EPHEMERIS_TYPE":0,"CLASSIFICATION_TYPE":"U","NORAD_CAT_ID":10787,"ELEMENT_SET_NO":999,"REV_AT_EPOCH":2453,"BSTAR":0,"MEAN_MOTION_DOT":1.12e-6,"MEAN_MOTION_DDOT":0}]
