OPS 9751                
1 10016U 77038A   26095.56946490 -.00000321  00000+0  00000+0 0  9993
2 10016   7.4691 332.0979 1306461 130.7965  28.1863  1.00264074 25720
INTELSAT 4A-F4          
1 10024U 77041A   26095.52165826 -.00000267  00000+0  00000+0 0  9997
2 10024   9.0413 311.6117 0012275 278.5699 104.2215  0.99444650 46263
ATLAS CENTAUR R/B       
1 10025U 77041B   26091.20561633 -.00000173  00000+0  10920-2 0  9996
2 10025  21.5737 283.3970 7181176  84.8686   9.2425  2.22886360396241
GOES 2                  
1 10061U 77048A   26095.24880990 -.00000053  00000+0  00000+0 0  9993
2 10061   6.5939 293.9791 0013720  51.6239 312.6531  0.99399916 45556
RADUGA 3                
1 10159U 77071A   26095.54020501  .00000124  00000+0  00000+0 0  9992
2 10159   4.3036 274.4981 0008361 304.1043 215.9285  1.00327935176312
SL-6 R/B(2)             
1 10167U 77068D   26095.14056972 -.00000344  00000+0 -14367-2 0  9994
2 10167  62.1373 326.2200 7374626  47.2638 354.7157  1.99737591279358
SIRIO                   
1 10294U 77080A   26095.59815954 -.00000103  00000+0  00000+0 0  9999
2 10294   7.3858 299.7088 0005883 149.2401  35.8996  1.00270867117197
EKRAN 2                 
1 10365U 77092A   26095.55069171 -.00000299  00000+0  00000+0 0  9995
2 10365   4.4230 275.6557 0039623  19.4444 196.1288  1.00265303134122
MOLNIYA 3-8             
1 10455U 77105A   26094.87451081  .00001228  00000+0  00000+0 0  9991
2 10455  63.7418 184.1063 6723467 277.3540  16.5304  2.00555628354972
SL-6 R/B(2)             
1 10485U 77105E   26079.43396220  .00000749  00000+0  00000+0 0  9999
2 10485  63.8926 224.2357 6952684 280.1958  13.8705  1.97303906348403
METEOSAT-1              
1 10489U 77108A   26095.22267172  .00000099  00000+0  00000+0 0  9992
2 10489   5.2598 281.9920 0010919  90.2075 276.7967  1.00302141136485
INTELSAT 4A-F3          
1 10557U 78002A   26094.88692657 -.00000170  00000+0  00000+0 0  9994
2 10557   9.1318 313.1520 0004097 316.1447 231.1828  0.99918220 48011
IUE                     
1 10637U 78012A   26095.21319272  .00000042  00000+0  00000+0 0  9998
2 10637  36.9148 289.5288 1460170 266.1779 285.1908  1.00068036128344
ATLAS CENTAUR R/B       
1 10722U 78002B   26093.49092018 -.00000052  00000+0  14096-2 0  9991
2 10722  21.8917   5.1953 7166016 129.2118   3.7590  2.21862890282954
INTELSAT 4A-F6          
1 10778U 78035A   26095.48768023 -.00000282  00000+0  00000+0 0  9997
2 10778   8.9118 312.1676 0008066 320.5337 237.8788  1.00282505121438
ATLAS CENTAUR R/B       
1 10779U 78035B   26094.10813762 -.00000125  00000+0  66485-3 0  9996
2 10779  21.9737  32.1808 7185460 199.8028 103.3983  2.22750698390241
OPS 8790                
1 10787U 78038A   26095.53977168  .00000112  00000+0  00000+0 0  9999
2 10787   3.7069 323.4722 0014732 303.0468 165.3908  1.00493129 24539
